[{"OBJECT_NAME":"STARLINK-5841","OBJECT_ID":"2023-064AX","EPOCH":"2026-03-09T09:55:02.143200","MEAN_MOTION":14.98303276,"ECCENTRICITY":0.00032249,"INCLINATION":69.9991,"RA_OF_ASC_NODE":85.1707,"ARG_OF_PERICENTER":277.624,"MEAN_ANOMALY":82.4553,"EPHEMERIS_TYPE":0,"CLASSIFICATION_TYPE":"U","NORAD_CAT_ID":56493,"ELEMENT_SET_NO":999,"REV_AT_EPOCH":15668,"BSTAR":-0.0002372291,"MEAN_MOTION_DOT":-2.921e-5,"MEAN_MOTION_DDOT":0},{"OBJECT_NAME":"CZ-6A DEB","OBJECT_ID":"2024-140ACJ","EPOCH":"2026-03-09T13:34:40.812960","MEAN_MOTION":14.75825013,"ECCENTRICITY":0.00997158,"INCLINATION":89.1651,"RA_OF_ASC_NODE":293.465,"ARG_OF_PERICENTER":131.8399,"MEAN_ANOMALY":229.139,"EPHEMERIS_TYPE":0,"CLASSIFICATION_TYPE":"U","NORAD_CAT_ID":61818,"ELEMENT_SET_NO":999,"REV_AT_EPOCH":7745,"BSTAR":0.0027745795,"MEAN_MOTION_DOT":0.00020689,"MEAN_MOTION_DDOT":0}]
